H1 CPF  1  DLR 2022 06 12 10  6632 technosat            
H2  1704205 6203    42829 2022 06 12 00 00 00 2022 06 19 00 00 00    60 1 1  0 0 0
H9
10 0 59743  43200.000000  0      -2489476.095       5751337.203      -3086970.540
10 0 59743  43260.000000  0      -2321537.282       5593968.783      -3482256.611
10 0 59743  43320.000000  0      -2145366.421       5411677.211      -3862858.995
10 0 59743  43380.000000  0      -1961920.021       5205168.268      -4227180.479
10 0 59743  43440.000000  0      -1772177.571       4975256.489      -4573693.699
10 0 59743  43500.000000  0      -1577136.497       4722861.745      -4900947.269
10 0 59743  43560.000000  0      -1377807.070       4449005.390      -5207571.617
10 0 59743  43620.000000  0      -1175207.321       4154805.968      -5492284.466
10 0 59743  43680.000000  0       -970357.971       3841474.484      -5753895.939
10 0 59743  43740.000000  0       -764277.416       3510309.270      -5991313.253
10 0 59743  43800.000000  0       -557976.785       3162690.485      -6203544.974
10 0 59743  43860.000000  0       -352455.111       2800074.272      -6389704.797
10 0 59743  43920.000000  0       -148694.663       2423986.701      -6549014.887
10 0 59743  43980.000000  0         52343.582       2036017.458      -6680808.880
10 0 59743  44040.000000  0        249724.301       1637813.226      -6784534.491
10 0 59743  44100.000000  0        442542.050       1231070.812      -6859755.662
10 0 59743  44160.000000  0        629925.322        817530.115      -6906154.215
10 0 59743  44220.000000  0        811040.380        398966.906      -6923531.177
10 0 59743  44280.000000  0        985094.879        -22814.654      -6911807.607
10 0 59743  44340.000000  0       1151341.238       -445989.579      -6871024.942
10 0 59743  44400.000000  0       1309079.789       -868719.686      -6801344.906
10 0 59743  44460.000000  0       1457661.661      -1289161.337      -6703049.044
10 0 59743  44520.000000  0       1596491.433      -1705473.243      -6576537.835
10 0 59743  44580.000000  0       1725029.567      -2115824.332      -6422329.365
10 0 59743  44640.000000  0       1842794.539      -2518401.644      -6241057.551
10 0 59743  44700.000000  0       1949364.672      -2911418.256      -6033469.980
10 0 59743  44760.000000  0       2044379.734      -3293121.289      -5800425.292
10 0 59743  44820.000000  0       2127542.216      -3661799.859      -5542889.971
10 0 59743  44880.000000  0       2198618.294      -4015792.828      -5261934.632
10 0 59743  44940.000000  0       2257438.466      -4353496.356      -4958729.920
10 0 59743  45000.000000  0       2303897.896      -4673371.332      -4634542.030
10 0 59743  45060.000000  0       2337956.440      -4973950.620      -4290727.793
10 0 59743  45120.000000  0       2359638.340      -5253846.117      -3928729.326
10 0 59743  45180.000000  0       2369031.583      -5511755.535      -3550068.229
10 0 59743  45240.000000  0       2366286.947      -5746468.845      -3156339.371
10 0 59743  45300.000000  0       2351616.743      -5956874.333      -2749204.316
10 0 59743  45360.000000  0       2325293.228      -6141964.352      -2330384.398
10 0 59743  45420.000000  0       2287646.604      -6300840.570      -1901653.371
10 0 59743  45480.000000  0       2239062.740      -6432718.675      -1464829.856
10 0 59743  45540.000000  0       2179980.770      -6536932.684      -1021769.498
10 0 59743  45600.000000  0       2110890.308      -6612938.606       -574356.700
10 0 59743  45660.000000  0       2032328.245      -6660317.387       -124496.347
10 0 59743  45720.000000  0       1944875.387      -6678777.360        325894.493
10 0 59743  45780.000000  0       1849152.931      -6668156.160        774895.007
10 0 59743  45840.000000  0       1745818.749      -6628422.034       1220589.238
10 0 59743  45900.000000  0       1635563.379      -6559674.391       1661074.783
10 0 59743  45960.000000  0       1519105.829      -6462143.493       2094471.291
10 0 59743  46020.000000  0       1397189.343      -6336189.651       2518928.719
10 0 59743  46080.000000  0       1270577.013      -6182301.842       2932635.578
10 0 59743  46140.000000  0       1140047.315      -6001095.608       3333826.947
10 0 59743  46200.000000  0       1006389.606      -5793310.340       3720792.234
10 0 59743  46260.000000  0        870399.610      -5559805.961       4091882.620
10 0 59743  46320.000000  0        732874.924      -5301559.098       4445518.210
10 0 59743  46380.000000  0        594610.502      -5019658.681       4780194.905
10 0 59743  46440.000000  0        456394.211      -4715300.944       5094490.849
10 0 59743  46500.000000  0        319002.510      -4389783.958       5387072.448
10 0 59743  46560.000000  0        183196.278      -4044501.716       5656699.984
10 0 59743  46620.000000  0         49716.752      -3680937.744       5902232.783
10 0 59743  46680.000000  0        -80718.383      -3300658.343       6122633.833
10 0 59743  46740.000000  0       -207418.741      -2905305.546       6316973.918
10 0 59743  46800.000000  0       -329724.777      -2496589.811       6484435.287
10 0 59743  46860.000000  0       -447011.102      -2076282.448       6624314.896
10 0 59743  46920.000000  0       -558689.584      -1646207.804       6736027.163
10 0 59743  46980.000000  0       -664212.222      -1208235.201       6819106.266
10 0 59743  47040.000000  0       -763073.762       -764270.675       6873207.934
10 0 59743  47100.000000  0       -854814.083       -316248.566       6898110.711
10 0 59743  47160.000000  0       -939020.303        133876.964       6893716.695
10 0 59743  47220.000000  0      -1015328.598        584140.505       6860051.821
10 0 59743  47280.000000  0      -1083425.731       1032574.018       6797265.595
10 0 59743  47340.000000  0      -1143050.297       1477215.428       6705630.378
10 0 59743  47400.000000  0      -1193993.690       1916117.212       6585540.191
10 0 59743  47460.000000  0      -1236100.784       2347354.950       6437509.012
10 0 59743  47520.000000  0      -1269270.324       2769035.746       6262168.622
10 0 59743  47580.000000  0      -1293455.051       3179306.606       6060265.981
10 0 59743  47640.000000  0      -1308661.499       3576362.623       5832660.069
10 0 59743  47700.000000  0      -1314949.474       3958454.932       5580318.347
10 0 59743  47760.000000  0      -1312431.272       4323898.543       5304312.801
10 0 59743  47820.000000  0      -1301270.656       4671079.911       5005815.477
10 0 59743  47880.000000  0      -1281681.541       4998464.235       4686093.582
10 0 59743  47940.000000  0      -1253926.360       5304602.416       4346504.124
10 0 59743  48000.000000  0      -1218314.137       5588137.580       3988488.164
10 0 59743  48060.000000  0      -1175198.395       5847811.187       3613564.825
10 0 59743  48120.000000  0      -1124974.881       6082468.891       3223324.956
10 0 59743  48180.000000  0      -1068079.034       6291065.984       2819424.310
10 0 59743  48240.000000  0      -1004983.101       6472672.244       2403576.348
10 0 59743  48300.000000  0       -936193.050       6626476.158       1977544.857
10 0 59743  48360.000000  0       -862245.383       6751788.670       1543136.384
10 0 59743  48420.000000  0       -783703.758       6848046.349       1102192.429
10 0 59743  48480.000000  0       -701155.460       6914813.974        656581.523
10 0 59743  48540.000000  0       -615207.745       6951786.558        208191.179
10 0 59743  48600.000000  0       -526484.088       6958790.768       -241080.297
10 0 59743  48660.000000  0       -435620.348       6935785.684       -689332.084
10 0 59743  48720.000000  0       -343260.881       6882862.857      -1134669.115
10 0 59743  48780.000000  0       -250054.631       6800245.678      -1575210.249
10 0 59743  48840.000000  0       -156651.249       6688288.158      -2009096.273
10 0 59743  48900.000000  0        -63697.231       6547473.137      -2434497.774
10 0 59743  48960.000000  0         28167.900       6378409.955      -2849622.844
10 0 59743  49020.000000  0        118315.371       6181831.542      -3252724.611
10 0 59743  49080.000000  0        206130.855       5958590.947      -3642108.535
10 0 59743  49140.000000  0        291018.071       5709657.337      -4016139.425
10 0 59743  49200.000000  0        372402.256       5436111.494      -4373248.169
10 0 59743  49260.000000  0        449733.500       5139140.830      -4711938.125
10 0 59743  49320.000000  0        522489.914       4820033.982      -5030791.147
10 0 59743  49380.000000  0        590180.644       4480175.006      -5328473.277
10 0 59743  49440.000000  0        652348.676       4121037.176      -5603740.039
10 0 59743  49500.000000  0        708573.420       3744176.452      -5855441.351
10 0 59743  49560.000000  0        758473.079       3351224.609      -6082526.016
10 0 59743  49620.000000  0        801706.813       2943882.124      -6284045.779
10 0 59743  49680.000000  0        837976.680       2523910.807      -6459158.959
10 0 59743  49740.000000  0        867029.318       2093126.276      -6607133.619
10 0 59743  49800.000000  0        888657.401       1653390.272      -6727350.409
10 0 59743  49860.000000  0        902700.806       1206602.733      -6819304.985
10 0 59743  49920.000000  0        909047.554        754693.772      -6882609.920
10 0 59743  49980.000000  0        907634.522        299615.575      -6916996.271
10 0 59743  50040.000000  0        898447.852       -156665.861      -6922314.679
10 0 59743  50100.000000  0        881523.085       -612179.005      -6898535.948
10 0 59743  50160.000000  0        856945.054      -1064955.020      -6845751.227
10 0 59743  50220.000000  0        824847.529      -1513036.020      -6764171.773
10 0 59743  50280.000000  0        785412.593      -1954483.255      -6654128.297
10 0 59743  50340.000000  0        738869.784      -2387385.267      -6516069.982
99
